{
    "links": {
        "self": "http://www.neowsapp.com/rest/v1/neo/3837982?api_key=iIulBulltgU6a56xZRHN4H3l9WmuAYTsLGpBGhQ2"
    },
    "id": "3837982",
    "neo_reference_id": "3837982",
    "name": "(2019 BW1)",
    "designation": "2019 BW1",
    "nasa_jpl_url": "http://ssd.jpl.nasa.gov/sbdb.cgi?sstr=3837982",
    "absolute_magnitude_h": 24.8,
    "estimated_diameter": {
        "kilometers": {
            "estimated_diameter_min": 0.0291443905,
            "estimated_diameter_max": 0.0651688382
        },
        "meters": {
            "estimated_diameter_min": 29.1443904535,
            "estimated_diameter_max": 65.1688382168
        },
        "miles": {
            "estimated_diameter_min": 0.018109479,
            "estimated_diameter_max": 0.0404940262
        },
        "feet": {
            "estimated_diameter_min": 95.6180819754,
            "estimated_diameter_max": 213.8085311752
        }
    },
    "is_potentially_hazardous_asteroid": false,
    "close_approach_data": [
        {
            "close_approach_date": "2019-02-02",
            "close_approach_date_full": "2019-Feb-02 16:22",
            "epoch_date_close_approach": 1549124520000,
            "relative_velocity": {
                "kilometers_per_second": "9.5972939867",
                "kilometers_per_hour": "34550.2583521944",
                "miles_per_hour": "21468.1869188954"
            },
            "miss_distance": {
                "astronomical": "0.0333310429",
                "lunar": "12.9657756881",
                "kilometers": "4986253.022718623",
                "miles": "3098313.9575900774"
            },
            "orbiting_body": "Earth"
        },
        {
            "close_approach_date": "2022-05-06",
            "close_approach_date_full": "2022-May-06 05:56",
            "epoch_date_close_approach": 1651816560000,
            "relative_velocity": {
                "kilometers_per_second": "22.3281596799",
                "kilometers_per_hour": "80381.3748476306",
                "miles_per_hour": "49945.8603879625"
            },
            "miss_distance": {
                "astronomical": "0.4820249961",
                "lunar": "187.5077234829",
                "kilometers": "72109912.703318307",
                "miles": "44807022.0246223566"
            },
            "orbiting_body": "Earth"
        },
        {
            "close_approach_date": "2106-01-01",
            "close_approach_date_full": "2106-Jan-01 15:12",
            "epoch_date_close_approach": 4291801920000,
            "relative_velocity": {
                "kilometers_per_second": "21.8944714007",
                "kilometers_per_hour": "78820.0970424336",
                "miles_per_hour": "48975.7430761721"
            },
            "miss_distance": {
                "astronomical": "0.4239448314",
                "lunar": "164.9145394146",
                "kilometers": "63421243.774949118",
                "miles": "39408133.5023211084"
            },
            "orbiting_body": "Earth"
        }
    ],
    "orbital_data": {
        "orbit_id": "6",
        "orbit_determination_date": "2020-09-11 07:42:13",
        "first_observation_date": "2019-01-25",
        "last_observation_date": "2019-02-09",
        "data_arc_in_days": 15,
        "observations_used": 69,
        "orbit_uncertainty": "7",
        "minimum_orbit_intersection": ".0283649",
        "jupiter_tisserand_invariant": "3.510",
        "epoch_osculation": "2459000.5",
        "eccentricity": ".5422037037879003",
        "semi_major_axis": "2.129385794734397",
        "inclination": "7.322612255302329",
        "ascending_node_longitude": "125.8454937188479",
        "orbital_period": "1134.958431854275",
        "perihelion_distance": ".9748249300360656",
        "perihelion_argument": "33.3712968744066",
        "aphelion_distance": "3.283946659432729",
        "perihelion_time": "2458537.658322274827",
        "mean_anomaly": "146.809785543279",
        "mean_motion": ".3171922335621037",
        "equinox": "J2000",
        "orbit_class": {
            "orbit_class_type": "APO",
            "orbit_class_description": "Near-Earth asteroid orbits which cross the Earth’s orbit similar to that of 1862 Apollo",
            "orbit_class_range": "a (semi-major axis) > 1.0 AU; q (perihelion) < 1.017 AU"
        }
    },
    "is_sentry_object": false
}